{"type": "FeatureCollection", "features": [ {"type": "Feature", "properties": {"norad_id": 42741, "name": "EUTELSAT 172B", "group": "eutelsat", "lat": -0.005568410095924438, "lon": -118.4487076237352, "alt_km": 35787.58095996306, "timestamp": "2025-12-20T22:39:10.316853+00:00", "meta": {"OBJECT_NAME": "EUTELSAT 172B", "OBJECT_ID": "2017-029B", "EPOCH": "2025-12-20T11:32:38.877792", "MEAN_MOTION": 1.00270576, "ECCENTRICITY": 3.078e-05, "INCLINATION": 0.0366, "RA_OF_ASC_NODE": 126.084, "ARG_OF_PERICENTER": 270.789, "MEAN_ANOMALY": 37.6034, "EPHEMERIS_TYPE": 0, "CLASSIFICATION_TYPE": "U", "NORAD_CAT_ID": 42741, "ELEMENT_SET_NO": 999, "REV_AT_EPOCH": 3193, "BSTAR": 0, "MEAN_MOTION_DOT": 1.8e-07, "MEAN_MOTION_DDOT": 0}, "tle": {"line1": "1 42741U 17029B   25354.48100553  .00000018  00000+0  00000+0 0  9999", "line2": "2 42741   0.0366 126.0840 0000307 270.7890  37.6034  1.00270576 31936"}}, "geometry": {"type": "Point", "coordinates": [-118.4487076237352, -0.005568410095924438]}}, {"type": "Feature", "properties": {"norad_id": 44334, "name": "EUTELSAT 7C", "group": "eutelsat", "lat": -0.04393461696774715, "lon": 76.53580843199155, "alt_km": 35799.22481032811, "timestamp": "2025-12-20T22:39:10.316864+00:00", "meta": {"OBJECT_NAME": "EUTELSAT 7C", "OBJECT_ID": "2019-034B", "EPOCH": "2025-12-20T06:24:55.272960", "MEAN_MOTION": 1.00270763, "ECCENTRICITY": 0.00030526, "INCLINATION": 0.0729, "RA_OF_ASC_NODE": 179.1336, "ARG_OF_PERICENTER": 73.4447, "MEAN_ANOMALY": 299.7414, "EPHEMERIS_TYPE": 0, "CLASSIFICATION_TYPE": "U", "NORAD_CAT_ID": 44334, "ELEMENT_SET_NO": 999, "REV_AT_EPOCH": 504, "BSTAR": 0, "MEAN_MOTION_DOT": 7.2e-07, "MEAN_MOTION_DDOT": 0}, "tle": {"line1": "1 44334U 19034B   25354.26730640  .00000072  00000+0  00000+0 0  9999", "line2": "2 44334   0.0729 179.1336 0003052  73.4447 299.7414  1.00270763  5048"}}, "geometry": {"type": "Point", "coordinates": [76.53580843199155, -0.04393461696774715]}}, {"type": "Feature", "properties": {"norad_id": 44624, "name": "EUTELSAT 5 WEST B", "group": "eutelsat", "lat": 0.09156747288433328, "lon": 64.57383166622832, "alt_km": 35797.73224991536, "timestamp": "2025-12-20T22:39:10.316874+00:00", "meta": {"OBJECT_NAME": "EUTELSAT 5 WEST B", "OBJECT_ID": "2019-067A", "EPOCH": "2025-12-20T06:21:33.095232", "MEAN_MOTION": 1.00271304, "ECCENTRICITY": 0.00029967, "INCLINATION": 0.0675, "RA_OF_ASC_NODE": 334.6268, "ARG_OF_PERICENTER": 294.5893, "MEAN_ANOMALY": 270.2794, "EPHEMERIS_TYPE": 0, "CLASSIFICATION_TYPE": "U", "NORAD_CAT_ID": 44624, "ELEMENT_SET_NO": 999, "REV_AT_EPOCH": 2264, "BSTAR": 0, "MEAN_MOTION_DOT": -1.8e-07, "MEAN_MOTION_DDOT": 0}, "tle": {"line1": "1 44624U 19067A   25354.26496638 -.00000018  00000+0  00000+0 0  9994", "line2": "2 44624   0.0675 334.6268 0002996 294.5893 270.2794  1.00271304 22641"}}, "geometry": {"type": "Point", "coordinates": [64.57383166622832, 0.09156747288433328]}}, {"type": "Feature", "properties": {"norad_id": 45027, "name": "EUTELSAT KONNECT", "group": "eutelsat", "lat": 0.0049336003292501695, "lon": 76.75982515480425, "alt_km": 35791.38438714256, "timestamp": "2025-12-20T22:39:10.316885+00:00", "meta": {"OBJECT_NAME": "EUTELSAT KONNECT", "OBJECT_ID": "2020-005B", "EPOCH": "2025-12-20T06:25:02.761248", "MEAN_MOTION": 1.00269751, "ECCENTRICITY": 0.00013058, "INCLINATION": 0.0718, "RA_OF_ASC_NODE": 94.8547, "ARG_OF_PERICENTER": 192.1408, "MEAN_ANOMALY": 265.5721, "EPHEMERIS_TYPE": 0, "CLASSIFICATION_TYPE": "U", "NORAD_CAT_ID": 45027, "ELEMENT_SET_NO": 999, "REV_AT_EPOCH": 2254, "BSTAR": 0, "MEAN_MOTION_DOT": 7.3e-07, "MEAN_MOTION_DDOT": 0}, "tle": {"line1": "1 45027U 20005B   25354.26739307  .00000073  00000+0  00000+0 0  9999", "line2": "2 45027   0.0718  94.8547 0001305 192.1408 265.5721  1.00269751 22549"}}, "geometry": {"type": "Point", "coordinates": [76.75982515480425, 0.0049336003292501695]}}, {"type": "Feature", "properties": {"norad_id": 49056, "name": "EUTELSAT QUANTUM", "group": "eutelsat", "lat": 0.04161199374562938, "lon": 117.24851364184721, "alt_km": 35799.3899383243, "timestamp": "2025-12-20T22:39:10.316895+00:00", "meta": {"OBJECT_NAME": "EUTELSAT QUANTUM", "OBJECT_ID": "2021-069B", "EPOCH": "2025-12-20T13:27:29.799648", "MEAN_MOTION": 1.0027209, "ECCENTRICITY": 0.00033324, "INCLINATION": 0.0192, "RA_OF_ASC_NODE": 34.4183, "ARG_OF_PERICENTER": 245.1221, "MEAN_ANOMALY": 59.4319, "EPHEMERIS_TYPE": 0, "CLASSIFICATION_TYPE": "U", "NORAD_CAT_ID": 49056, "ELEMENT_SET_NO": 999, "REV_AT_EPOCH": 1613, "BSTAR": 0, "MEAN_MOTION_DOT": 1.49e-06, "MEAN_MOTION_DDOT": 0}, "tle": {"line1": "1 49056U 21069B   25354.56076157  .00000149  00000+0  00000+0 0  9990", "line2": "2 49056   0.0192  34.4183 0003332 245.1221  59.4319  1.00272090 16132"}}, "geometry": {"type": "Point", "coordinates": [117.24851364184721, 0.04161199374562938]}}, {"type": "Feature", "properties": {"norad_id": 53765, "name": "EUTELSAT KONNECT VHTS", "group": "eutelsat", "lat": -0.0008083406249014142, "lon": 72.32052435179565, "alt_km": 35794.41332553284, "timestamp": "2025-12-20T22:39:10.316905+00:00", "meta": {"OBJECT_NAME": "EUTELSAT KONNECT VHTS", "OBJECT_ID": "2022-110A", "EPOCH": "2025-12-20T03:48:38.814048", "MEAN_MOTION": 1.00276689, "ECCENTRICITY": 0.00023926, "INCLINATION": 0.0642, "RA_OF_ASC_NODE": 98.8087, "ARG_OF_PERICENTER": 137.8855, "MEAN_ANOMALY": 272.2232, "EPHEMERIS_TYPE": 0, "CLASSIFICATION_TYPE": "U", "NORAD_CAT_ID": 53765, "ELEMENT_SET_NO": 999, "REV_AT_EPOCH": 503, "BSTAR": 0, "MEAN_MOTION_DOT": 4.2e-07, "MEAN_MOTION_DDOT": 0}, "tle": {"line1": "1 53765U 22110A   25354.15878257  .00000042  00000+0  00000+0 0  9998", "line2": "2 53765   0.0642  98.8087 0002392 137.8855 272.2232  1.00276689  5030"}}, "geometry": {"type": "Point", "coordinates": [72.32052435179565, -0.0008083406249014142]}}, {"type": "Feature", "properties": {"norad_id": 54048, "name": "EUTELSAT HOTBIRD 13F", "group": "eutelsat", "lat": 0.046486931418663564, "lon": 82.57632447576371, "alt_km": 35783.81767465843, "timestamp": "2025-12-20T22:39:10.316916+00:00", "meta": {"OBJECT_NAME": "EUTELSAT HOTBIRD 13F", "OBJECT_ID": "2022-134A", "EPOCH": "2025-12-20T04:43:57.443232", "MEAN_MOTION": 1.00272198, "ECCENTRICITY": 0.0002383, "INCLINATION": 0.0482, "RA_OF_ASC_NODE": 295.6006, "ARG_OF_PERICENTER": 68.8406, "MEAN_ANOMALY": 168.5765, "EPHEMERIS_TYPE": 0, "CLASSIFICATION_TYPE": "U", "NORAD_CAT_ID": 54048, "ELEMENT_SET_NO": 999, "REV_AT_EPOCH": 1158, "BSTAR": 0, "MEAN_MOTION_DOT": 1.11e-06, "MEAN_MOTION_DDOT": 0}, "tle": {"line1": "1 54048U 22134A   25354.19719263  .00000111  00000+0  00000+0 0  9991", "line2": "2 54048   0.0482 295.6006 0002383  68.8406 168.5765  1.00272198 11586"}}, "geometry": {"type": "Point", "coordinates": [82.57632447576371, 0.046486931418663564]}}, {"type": "Feature", "properties": {"norad_id": 54225, "name": "EUTELSAT HOTBIRD 13G", "group": "eutelsat", "lat": 0.011627994854054212, "lon": 82.52829060245439, "alt_km": 35785.99001066563, "timestamp": "2025-12-20T22:39:10.316926+00:00", "meta": {"OBJECT_NAME": "EUTELSAT HOTBIRD 13G", "OBJECT_ID": "2022-146A", "EPOCH": "2025-12-19T18:27:37.056960", "MEAN_MOTION": 1.0027241, "ECCENTRICITY": 0.00017892, "INCLINATION": 0.0515, "RA_OF_ASC_NODE": 225.8744, "ARG_OF_PERICENTER": 308.1908, "MEAN_ANOMALY": 204.4423, "EPHEMERIS_TYPE": 0, "CLASSIFICATION_TYPE": "U", "NORAD_CAT_ID": 54225, "ELEMENT_SET_NO": 999, "REV_AT_EPOCH": 566, "BSTAR": 0, "MEAN_MOTION_DOT": 1.12e-06, "MEAN_MOTION_DDOT": 0}, "tle": {"line1": "1 54225U 22146A   25353.76917890  .00000112  00000+0  00000+0 0  9990", "line2": "2 54225   0.0515 225.8744 0001789 308.1908 204.4423  1.00272410  5660"}}, "geometry": {"type": "Point", "coordinates": [82.52829060245439, 0.011627994854054212]}}, {"type": "Feature", "properties": {"norad_id": 54259, "name": "EUTELSAT 10B", "group": "eutelsat", "lat": 0.008903642113438246, "lon": 79.562314578388, "alt_km": 35782.79765237689, "timestamp": "2025-12-20T22:39:10.316936+00:00", "meta": {"OBJECT_NAME": "EUTELSAT 10B", "OBJECT_ID": "2022-157A", "EPOCH": "2025-12-20T03:00:22.363776", "MEAN_MOTION": 1.00274144, "ECCENTRICITY": 6.752e-05, "INCLINATION": 0.0606, "RA_OF_ASC_NODE": 97.5404, "ARG_OF_PERICENTER": 8.9249, "MEAN_ANOMALY": 37.5953, "EPHEMERIS_TYPE": 0, "CLASSIFICATION_TYPE": "U", "NORAD_CAT_ID": 54259, "ELEMENT_SET_NO": 999, "REV_AT_EPOCH": 1123, "BSTAR": 0, "MEAN_MOTION_DOT": 9.3e-07, "MEAN_MOTION_DDOT": 0}, "tle": {"line1": "1 54259U 22157A   25354.12525884  .00000093  00000+0  00000+0 0  9996", "line2": "2 54259   0.0606  97.5404 0000675   8.9249  37.5953  1.00274144 11230"}}, "geometry": {"type": "Point", "coordinates": [79.562314578388, 0.008903642113438246]}}, {"type": "Feature", "properties": {"norad_id": 59346, "name": "EUTELSAT 36D", "group": "eutelsat", "lat": 0.050842038250415875, "lon": 105.40724842634154, "alt_km": 35786.082443087784, "timestamp": "2025-12-20T22:39:10.316946+00:00", "meta": {"OBJECT_NAME": "EUTELSAT 36D", "OBJECT_ID": "2024-059A", "EPOCH": "2025-12-19T22:17:14.700768", "MEAN_MOTION": 1.0027216, "ECCENTRICITY": 6.505e-05, "INCLINATION": 0.0247, "RA_OF_ASC_NODE": 22.0433, "ARG_OF_PERICENTER": 347.9809, "MEAN_ANOMALY": 88.8998, "EPHEMERIS_TYPE": 0, "CLASSIFICATION_TYPE": "U", "NORAD_CAT_ID": 59346, "ELEMENT_SET_NO": 999, "REV_AT_EPOCH": 635, "BSTAR": 0, "MEAN_MOTION_DOT": 0, "MEAN_MOTION_DDOT": 0}, "tle": {"line1": "1 59346U 24059A   25353.92864237  .00000000  00000+0  00000+0 0  9994", "line2": "2 59346   0.0247  22.0433 0000650 347.9809  88.8998  1.00272160  6350"}}, "geometry": {"type": "Point", "coordinates": [105.40724842634154, 0.050842038250415875]}}]}